FENGYUN 4C              
1 67246U 25312A   26024.88534186 -.00000308  00000+0  00000+0 0  9995
2 67246   0.0530 244.4880 0001936  47.6027 283.7792  1.00273004   342
CZ-3B R/B               
1 67247U 25312B   26023.46002077  .00291215  72951-6  66585-3 0  9991
2 67247  28.3831 323.1514 7175714 197.1563 112.5228  2.48195757   678
2025-313A               
1 67248U 25313A   26024.89536785  .00002410  00000+0  24365-3 0  9995
2 67248  97.5610 100.3218 0280470  77.1519 286.0862 14.66842193  4014
2025-313B               
1 67249U 25313B   26024.91391600  .00005277  00000+0  40325-3 0  9992
2 67249  97.5298 100.4816 0297517  80.9350 282.5396 14.73298400  4036
2025-313C               
1 67250U 25313C   26024.90724813  .00022038  00000+0  20342-2 0  9999
2 67250  97.6337 101.2955 0161865  90.4725 271.5040 14.85129196  4069
2025-313D               
1 67251U 25313D   26024.89803513  .00004834  00000+0  42024-3 0  9999
2 67251  97.5854 101.2723 0152367  83.0824 278.7699 14.88832167  4073
ZORKIY-2M-VPE           
1 67252U 25313E   26024.90285072  .00013104  00000+0  57744-3 0  9991
2 67252  97.4090 101.9521 0011616 125.0639 235.1689 15.21879941  4165
AIST-2T 1               
1 67253U 25313F   26024.91872481  .00072353  00000+0  69061-3 0  9995
2 67253  97.1004 102.3353 0010550 140.7872 219.4156 15.66463596  4264
AIST-2T 2               
1 67254U 25313G   26024.79707980  .00036441  00000+0  38171-3 0  9999
2 67254  97.0997 102.2007 0007394 178.9608 181.1669 15.64301511  4239
2025-313H               
1 67255U 25313H   26024.92129552  .00004299  00000+0  30186-3 0  9992
2 67255  97.3064 100.8369 0091486 102.8472 258.2994 15.02246168  4115
SITRO-AIS-57            
1 67256U 25313J   26024.86871632  .00016660  00000+0  76842-3 0  9993
2 67256  97.4083 101.8397 0017539 142.0232 218.2244 15.20178703  4154
SITRO-AIS-59            
1 67257U 25313K   26024.86818261  .00016154  00000+0  74514-3 0  9995
2 67257  97.4088 101.8426 0017283 144.0679 216.1723 15.20187742  4158
