CCSDS_OMM_VERS = 2.0
CREATION_DATE  = 
ORIGINATOR     = 

OBJECT_NAME    = FENGYUN 4C
OBJECT_ID      = 2025-312A
CENTER_NAME    = EARTH
REF_FRAME      = TEME
TIME_SYSTEM    = UTC
MEAN_ELEMENT_THEORY = SGP/SGP4

EPOCH          = 2026-01-24T21:14:53.536704
MEAN_MOTION    = 1.00273004
ECCENTRICITY   = .00019363
INCLINATION    = 0.0530
RA_OF_ASC_NODE = 244.4880
ARG_OF_PERICENTER = 47.6027
MEAN_ANOMALY   = 283.7792

EPHEMERIS_TYPE = 0
CLASSIFICATION_TYPE = U
NORAD_CAT_ID   = 67246
ELEMENT_SET_NO = 999
REV_AT_EPOCH   = 34
BSTAR          = 0
MEAN_MOTION_DOT = -.308E-5
MEAN_MOTION_DDOT = 0

CCSDS_OMM_VERS = 2.0
CREATION_DATE  = 
ORIGINATOR     = 

OBJECT_NAME    = CZ-3B R/B
OBJECT_ID      = 2025-312B
CENTER_NAME    = EARTH
REF_FRAME      = TEME
TIME_SYSTEM    = UTC
MEAN_ELEMENT_THEORY = SGP/SGP4

EPOCH          = 2026-01-23T11:02:25.794528
MEAN_MOTION    = 2.48195757
ECCENTRICITY   = .71757143
INCLINATION    = 28.3831
RA_OF_ASC_NODE = 323.1514
ARG_OF_PERICENTER = 197.1563
MEAN_ANOMALY   = 112.5228

EPHEMERIS_TYPE = 0
CLASSIFICATION_TYPE = U
NORAD_CAT_ID   = 67247
ELEMENT_SET_NO = 999
REV_AT_EPOCH   = 67
BSTAR          = .6658537E-3
MEAN_MOTION_DOT = .291215E-2
MEAN_MOTION_DDOT = .729511E-6

CCSDS_OMM_VERS = 2.0
CREATION_DATE  = 
ORIGINATOR     = 

OBJECT_NAME    = 2025-313A
OBJECT_ID      = 2025-313A
CENTER_NAME    = EARTH
REF_FRAME      = TEME
TIME_SYSTEM    = UTC
MEAN_ELEMENT_THEORY = SGP/SGP4

EPOCH          = 2026-01-24T21:29:19.782240
MEAN_MOTION    = 14.66842193
ECCENTRICITY   = .02804701
INCLINATION    = 97.5610
RA_OF_ASC_NODE = 100.3218
ARG_OF_PERICENTER = 77.1519
MEAN_ANOMALY   = 286.0862

EPHEMERIS_TYPE = 0
CLASSIFICATION_TYPE = U
NORAD_CAT_ID   = 67248
ELEMENT_SET_NO = 999
REV_AT_EPOCH   = 401
BSTAR          = .24364834E-3
MEAN_MOTION_DOT = .241E-4
MEAN_MOTION_DDOT = 0

CCSDS_OMM_VERS = 2.0
CREATION_DATE  = 
ORIGINATOR     = 

OBJECT_NAME    = 2025-313B
OBJECT_ID      = 2025-313B
CENTER_NAME    = EARTH
REF_FRAME      = TEME
TIME_SYSTEM    = UTC
MEAN_ELEMENT_THEORY = SGP/SGP4

EPOCH          = 2026-01-24T21:56:02.342400
MEAN_MOTION    = 14.73298400
ECCENTRICITY   = .02975175
INCLINATION    = 97.5298
RA_OF_ASC_NODE = 100.4816
ARG_OF_PERICENTER = 80.9350
MEAN_ANOMALY   = 282.5396

EPHEMERIS_TYPE = 0
CLASSIFICATION_TYPE = U
NORAD_CAT_ID   = 67249
ELEMENT_SET_NO = 999
REV_AT_EPOCH   = 403
BSTAR          = .40325429E-3
MEAN_MOTION_DOT = .5277E-4
MEAN_MOTION_DDOT = 0

CCSDS_OMM_VERS = 2.0
CREATION_DATE  = 
ORIGINATOR     = 

OBJECT_NAME    = 2025-313C
OBJECT_ID      = 2025-313C
CENTER_NAME    = EARTH
REF_FRAME      = TEME
TIME_SYSTEM    = UTC
MEAN_ELEMENT_THEORY = SGP/SGP4

EPOCH          = 2026-01-24T21:46:26.238432
MEAN_MOTION    = 14.85129196
ECCENTRICITY   = .0161865
INCLINATION    = 97.6337
RA_OF_ASC_NODE = 101.2955
ARG_OF_PERICENTER = 90.4725
MEAN_ANOMALY   = 271.5040

EPHEMERIS_TYPE = 0
CLASSIFICATION_TYPE = U
NORAD_CAT_ID   = 67250
ELEMENT_SET_NO = 999
REV_AT_EPOCH   = 406
BSTAR          = .20342136E-2
MEAN_MOTION_DOT = .22038E-3
MEAN_MOTION_DDOT = 0

CCSDS_OMM_VERS = 2.0
CREATION_DATE  = 
ORIGINATOR     = 

OBJECT_NAME    = 2025-313D
OBJECT_ID      = 2025-313D
CENTER_NAME    = EARTH
REF_FRAME      = TEME
TIME_SYSTEM    = UTC
MEAN_ELEMENT_THEORY = SGP/SGP4

EPOCH          = 2026-01-24T21:33:10.235232
MEAN_MOTION    = 14.88832167
ECCENTRICITY   = .01523677
INCLINATION    = 97.5854
RA_OF_ASC_NODE = 101.2723
ARG_OF_PERICENTER = 83.0824
MEAN_ANOMALY   = 278.7699

EPHEMERIS_TYPE = 0
CLASSIFICATION_TYPE = U
NORAD_CAT_ID   = 67251
ELEMENT_SET_NO = 999
REV_AT_EPOCH   = 407
BSTAR          = .42024136E-3
MEAN_MOTION_DOT = .4834E-4
MEAN_MOTION_DDOT = 0

CCSDS_OMM_VERS = 2.0
CREATION_DATE  = 
ORIGINATOR     = 

OBJECT_NAME    = ZORKIY-2M-VPE
OBJECT_ID      = 2025-313E
CENTER_NAME    = EARTH
REF_FRAME      = TEME
TIME_SYSTEM    = UTC
MEAN_ELEMENT_THEORY = SGP/SGP4

EPOCH          = 2026-01-24T21:40:06.302208
MEAN_MOTION    = 15.21879941
ECCENTRICITY   = .00116162
INCLINATION    = 97.4090
RA_OF_ASC_NODE = 101.9521
ARG_OF_PERICENTER = 125.0639
MEAN_ANOMALY   = 235.1689

EPHEMERIS_TYPE = 0
CLASSIFICATION_TYPE = U
NORAD_CAT_ID   = 67252
ELEMENT_SET_NO = 999
REV_AT_EPOCH   = 416
BSTAR          = .57744112E-3
MEAN_MOTION_DOT = .13104E-3
MEAN_MOTION_DDOT = 0

CCSDS_OMM_VERS = 2.0
CREATION_DATE  = 
ORIGINATOR     = 

OBJECT_NAME    = AIST-2T 1
OBJECT_ID      = 2025-313F
CENTER_NAME    = EARTH
REF_FRAME      = TEME
TIME_SYSTEM    = UTC
MEAN_ELEMENT_THEORY = SGP/SGP4

EPOCH          = 2026-01-24T22:02:57.823584
MEAN_MOTION    = 15.66463596
ECCENTRICITY   = .00105508
INCLINATION    = 97.1004
RA_OF_ASC_NODE = 102.3353
ARG_OF_PERICENTER = 140.7872
MEAN_ANOMALY   = 219.4156

EPHEMERIS_TYPE = 0
CLASSIFICATION_TYPE = U
NORAD_CAT_ID   = 67253
ELEMENT_SET_NO = 999
REV_AT_EPOCH   = 426
BSTAR          = .69061094E-3
MEAN_MOTION_DOT = .72353E-3
MEAN_MOTION_DDOT = 0

CCSDS_OMM_VERS = 2.0
CREATION_DATE  = 
ORIGINATOR     = 

OBJECT_NAME    = AIST-2T 2
OBJECT_ID      = 2025-313G
CENTER_NAME    = EARTH
REF_FRAME      = TEME
TIME_SYSTEM    = UTC
MEAN_ELEMENT_THEORY = SGP/SGP4

EPOCH          = 2026-01-24T19:07:47.694720
MEAN_MOTION    = 15.64301511
ECCENTRICITY   = .00073943
INCLINATION    = 97.0997
RA_OF_ASC_NODE = 102.2007
ARG_OF_PERICENTER = 178.9608
MEAN_ANOMALY   = 181.1669

EPHEMERIS_TYPE = 0
CLASSIFICATION_TYPE = U
NORAD_CAT_ID   = 67254
ELEMENT_SET_NO = 999
REV_AT_EPOCH   = 423
BSTAR          = .38171294E-3
MEAN_MOTION_DOT = .36441E-3
MEAN_MOTION_DDOT = 0

CCSDS_OMM_VERS = 2.0
CREATION_DATE  = 
ORIGINATOR     = 

OBJECT_NAME    = 2025-313H
OBJECT_ID      = 2025-313H
CENTER_NAME    = EARTH
REF_FRAME      = TEME
TIME_SYSTEM    = UTC
MEAN_ELEMENT_THEORY = SGP/SGP4

EPOCH          = 2026-01-24T22:06:39.932928
MEAN_MOTION    = 15.02246168
ECCENTRICITY   = .00914866
INCLINATION    = 97.3064
RA_OF_ASC_NODE = 100.8369
ARG_OF_PERICENTER = 102.8472
MEAN_ANOMALY   = 258.2994

EPHEMERIS_TYPE = 0
CLASSIFICATION_TYPE = U
NORAD_CAT_ID   = 67255
ELEMENT_SET_NO = 999
REV_AT_EPOCH   = 411
BSTAR          = .30185977E-3
MEAN_MOTION_DOT = .4299E-4
MEAN_MOTION_DDOT = 0

CCSDS_OMM_VERS = 2.0
CREATION_DATE  = 
ORIGINATOR     = 

OBJECT_NAME    = SITRO-AIS-57
OBJECT_ID      = 2025-313J
CENTER_NAME    = EARTH
REF_FRAME      = TEME
TIME_SYSTEM    = UTC
MEAN_ELEMENT_THEORY = SGP/SGP4

EPOCH          = 2026-01-24T20:50:57.090048
MEAN_MOTION    = 15.20178703
ECCENTRICITY   = .00175397
INCLINATION    = 97.4083
RA_OF_ASC_NODE = 101.8397
ARG_OF_PERICENTER = 142.0232
MEAN_ANOMALY   = 218.2244

EPHEMERIS_TYPE = 0
CLASSIFICATION_TYPE = U
NORAD_CAT_ID   = 67256
ELEMENT_SET_NO = 999
REV_AT_EPOCH   = 415
BSTAR          = .76841931E-3
MEAN_MOTION_DOT = .1666E-3
MEAN_MOTION_DDOT = 0

CCSDS_OMM_VERS = 2.0
CREATION_DATE  = 
ORIGINATOR     = 

OBJECT_NAME    = SITRO-AIS-59
OBJECT_ID      = 2025-313K
CENTER_NAME    = EARTH
REF_FRAME      = TEME
TIME_SYSTEM    = UTC
MEAN_ELEMENT_THEORY = SGP/SGP4

EPOCH          = 2026-01-24T20:50:10.977504
MEAN_MOTION    = 15.20187742
ECCENTRICITY   = .00172835
INCLINATION    = 97.4088
RA_OF_ASC_NODE = 101.8426
ARG_OF_PERICENTER = 144.0679
MEAN_ANOMALY   = 216.1723

EPHEMERIS_TYPE = 0
CLASSIFICATION_TYPE = U
NORAD_CAT_ID   = 67257
ELEMENT_SET_NO = 999
REV_AT_EPOCH   = 415
BSTAR          = .74513822E-3
MEAN_MOTION_DOT = .16154E-3
MEAN_MOTION_DDOT = 0

